{"fetched_at":"2026-07-09T18:16:42.472Z","source":"https://celestrak.org/NORAD/elements/gp.php?GROUP=oneweb&FORMAT=JSON","constellation":"oneweb","records":[{"OBJECT_NAME":"ONEWEB-0340","OBJECT_ID":"2021-083W","EPOCH":"2026-07-08T21:50:30.781536","CLASSIFICATION_TYPE":"U","MEAN_MOTION":13.18687521,"ECCENTRICITY":0.00018722,"INCLINATION":87.9184,"RA_OF_ASC_NODE":331.1367,"ARG_OF_PERICENTER":97.3474,"MEAN_ANOMALY":262.7871,"EPHEMERIS_TYPE":0,"NORAD_CAT_ID":49206,"ELEMENT_SET_NO":999,"REV_AT_EPOCH":23283,"BSTAR":0.0003125352,"MEAN_MOTION_DOT":0.00000136,"MEAN_MOTION_DDOT":0},{"OBJECT_NAME":"ONEWEB-0341","OBJECT_ID":"2021-083X","EPOCH":"2026-07-08T22:00:13.258368","CLASSIFICATION_TYPE":"U","MEAN_MOTION":13.18686885,"ECCENTRICITY":0.0002299,"INCLINATION":87.9177,"RA_OF_ASC_NODE":331.1371,"ARG_OF_PERICENTER":95.6566,"MEAN_ANOMALY":264.4829,"EPHEMERIS_TYPE":0,"NORAD_CAT_ID":49207,"ELEMENT_SET_NO":999,"REV_AT_EPOCH":23285,"BSTAR":-0.000053946255,"MEAN_MOTION_DOT":-8e-8,"MEAN_MOTION_DDOT":0},{"OBJECT_NAME":"ONEWEB-0342","OBJECT_ID":"2021-083Y","EPOCH":"2026-07-08T18:57:39.817152","CLASSIFICATION_TYPE":"U","MEAN_MOTION":13.20772408,"ECCENTRICITY":0.00021019,"INCLINATION":87.919,"RA_OF_ASC_NODE":270.1323,"ARG_OF_PERICENTER":102.4325,"MEAN_ANOMALY":257.7044,"EPHEMERIS_TYPE":0,"NORAD_CAT_ID":49208,"ELEMENT_SET_NO":999,"REV_AT_EPOCH":23963,"BSTAR":0.00019708568,"MEAN_MOTION_DOT":9.3e-7,"MEAN_MOTION_DDOT":0},{"OBJECT_NAME":"ONEWEB-0343","OBJECT_ID":"2021-083Z","EPOCH":"2026-07-08T22:12:22.025952","CLASSIFICATION_TYPE":"U","MEAN_MOTION":13.18687301,"ECCENTRICITY":0.00020698,"INCLINATION":87.9186,"RA_OF_ASC_NODE":331.1329,"ARG_OF_PERICENTER":105.5132,"MEAN_ANOMALY":254.6228,"EPHEMERIS_TYPE":0,"NORAD_CAT_ID":49209,"ELEMENT_SET_NO":999,"REV_AT_EPOCH":23290,"BSTAR":0.00000532508,"MEAN_MOTION_DOT":1.5e-7,"MEAN_MOTION_DDOT":0},{"OBJECT_NAME":"ONEWEB-0344","OBJECT_ID":"2021-083AA","EPOCH":"2026-07-08T21:45:33.561216","CLASSIFICATION_TYPE":"U","MEAN_MOTION":13.13468548,"ECCENTRICITY":0.00022153,"INCLINATION":87.8965,"RA_OF_ASC_NODE":315.9165,"ARG_OF_PERICENTER":93.1964,"MEAN_ANOMALY":266.9419,"EPHEMERIS_TYPE":0,"NORAD_CAT_ID":49210,"ELEMENT_SET_NO":999,"REV_AT_EPOCH":23374,"BSTAR":-0.00049600765,"MEAN_MOTION_DOT":-0.00000168,"MEAN_MOTION_DDOT":0},{"OBJECT_NAME":"ONEWEB-0345","OBJECT_ID":"2021-083AB","EPOCH":"2026-07-08T21:33:22.469472","CLASSIFICATION_TYPE":"U","MEAN_MOTION":13.13468951,"ECCENTRICITY":0.00022199,"INCLINATION":87.8982,"RA_OF_ASC_NODE":315.9015,"ARG_OF_PERICENTER":97.8615,"MEAN_ANOMALY":262.2766,"EPHEMERIS_TYPE":0,"NORAD_CAT_ID":49211,"ELEMENT_SET_NO":999,"REV_AT_EPOCH":23375,"BSTAR":0.000077777841,"MEAN_MOTION_DOT":4.1e-7,"MEAN_MOTION_DDOT":0},{"OBJECT_NAME":"ONEWEB-0346","OBJECT_ID":"2021-083AC","EPOCH":"2026-07-08T22:07:30.554688","CLASSIFICATION_TYPE":"U","MEAN_MOTION":13.18687105,"ECCENTRICITY":0.00017186,"INCLINATION":87.9182,"RA_OF_ASC_NODE":331.1332,"ARG_OF_PERICENTER":76.0609,"MEAN_ANOMALY":284.0714,"EPHEMERIS_TYPE":0,"NORAD_CAT_ID":49212,"ELEMENT_SET_NO":999,"REV_AT_EPOCH":23284,"BSTAR":-0.000012275592,"MEAN_MOTION_DOT":8e-8,"MEAN_MOTION_DDOT":0},{"OBJECT_NAME":"ONEWEB-0348","OBJECT_ID":"2021-083AD","EPOCH":"2026-07-08T15:04:56.552448","CLASSIFICATION_TYPE":"U","MEAN_MOTION":13.20772749,"ECCENTRICITY":0.00022727,"INCLINATION":87.9197,"RA_OF_ASC_NODE":270.1699,"ARG_OF_PERICENTER":84.7172,"MEAN_ANOMALY":275.4221,"EPHEMERIS_TYPE":0,"NORAD_CAT_ID":49213,"ELEMENT_SET_NO":999,"REV_AT_EPOCH":23964,"BSTAR":0.00027103357,"MEAN_MOTION_DOT":0.00000123,"MEAN_MOTION_DDOT":0},{"OBJECT_NAME":"ONEWEB-0350","OBJECT_ID":"2021-083AE","EPOCH":"2026-07-08T22:00:20.628288","CLASSIFICATION_TYPE":"U","MEAN_MOTION":13.13422861,"ECCENTRICITY":0.00014144,"INCLINATION":87.8977,"RA_OF_ASC_NODE":315.9031,"ARG_OF_PERICENTER":126.3037,"MEAN_ANOMALY":233.8223,"EPHEMERIS_TYPE":0,"NORAD_CAT_ID":49214,"ELEMENT_SET_NO":999,"REV_AT_EPOCH":23378,"BSTAR":-0.00080061101,"MEAN_MOTION_DOT":-0.00000279,"MEAN_MOTION_DDOT":0},{"OBJECT_NAME":"ONEWEB-0351","OBJECT_ID":"2021-083AF","EPOCH":"2026-07-08T18:33:12.489408","CLASSIFICATION_TYPE":"U","MEAN_MOTION":13.20770475,"ECCENTRICITY":0.0002684,"INCLINATION":87.9209,"RA_OF_ASC_NODE":270.1361,"ARG_OF_PERICENTER":107.3759,"MEAN_ANOMALY":252.7668,"EPHEMERIS_TYPE":0,"NORAD_CAT_ID":49215,"ELEMENT_SET_NO":999,"REV_AT_EPOCH":23962,"BSTAR":-0.000060993466,"MEAN_MOTION_DOT":-1.2e-7,"MEAN_MOTION_DDOT":0},{"OBJECT_NAME":"ONEWEB-0352","OBJECT_ID":"2021-083AG","EPOCH":"2026-07-08T21:18:45.114624","CLASSIFICATION_TYPE":"U","MEAN_MOTION":13.13468134,"ECCENTRICITY":0.00023065,"INCLINATION":87.899,"RA_OF_ASC_NODE":315.9109,"ARG_OF_PERICENTER":100.7078,"MEAN_ANOMALY":259.4311,"EPHEMERIS_TYPE":0,"NORAD_CAT_ID":49216,"ELEMENT_SET_NO":999,"REV_AT_EPOCH":23387,"BSTAR":0.0008453795,"MEAN_MOTION_DOT":0.00000321,"MEAN_MOTION_DDOT":0},{"OBJECT_NAME":"ONEWEB-0354","OBJECT_ID":"2021-083AH","EPOCH":"2026-07-08T17:23:06.685152","CLASSIFICATION_TYPE":"U","MEAN_MOTION":13.20770851,"ECCENTRICITY":0.0002318,"INCLINATION":87.9198,"RA_OF_ASC_NODE":270.1466,"ARG_OF_PERICENTER":89.0709,"MEAN_ANOMALY":271.069,"EPHEMERIS_TYPE":0,"NORAD_CAT_ID":49217,"ELEMENT_SET_NO":999,"REV_AT_EPOCH":23965,"BSTAR":-0.000075095341,"MEAN_MOTION_DOT":-1.8e-7,"MEAN_MOTION_DDOT":0},{"OBJECT_NAME":"ONEWEB-0355","OBJECT_ID":"2021-083AJ","EPOCH":"2026-07-08T20:11:34.698048","CLASSIFICATION_TYPE":"U","MEAN_MOTION":13.13296322,"ECCENTRICITY":0.00021119,"INCLINATION":87.8966,"RA_OF_ASC_NODE":315.9239,"ARG_OF_PERICENTER":100.939,"MEAN_ANOMALY":259.1977,"EPHEMERIS_TYPE":0,"NORAD_CAT_ID":49218,"ELEMENT_SET_NO":999,"REV_AT_EPOCH":23374,"BSTAR":-0.00096706338,"MEAN_MOTION_DOT":-0.00000339,"MEAN_MOTION_DDOT":0},{"OBJECT_NAME":"ONEWEB-0357","OBJECT_ID":"2021-083AK","EPOCH":"2026-07-08T17:18:14.429376","CLASSIFICATION_TYPE":"U","MEAN_MOTION":13.2077114,"ECCENTRICITY":0.00021702,"INCLINATION":87.9191,"RA_OF_ASC_NODE":270.1416,"ARG_OF_PERICENTER":103.4073,"MEAN_ANOMALY":256.7303,"EPHEMERIS_TYPE":0,"NORAD_CAT_ID":49219,"ELEMENT_SET_NO":999,"REV_AT_EPOCH":23965,"BSTAR":-0.00042642864,"MEAN_MOTION_DOT":-0.0000016,"MEAN_MOTION_DDOT":0},{"OBJECT_NAME":"ONEWEB-0332","OBJECT_ID":"2021-090A","EPOCH":"2026-07-08T18:14:21.284448","CLASSIFICATION_TYPE":"U","MEAN_MOTION":13.14502736,"ECCENTRICITY":0.00019473,"INCLINATION":87.8968,"RA_OF_ASC_NODE":285.411,"ARG_OF_PERICENTER":106.48,"MEAN_ANOMALY":253.6544,"EPHEMERIS_TYPE":0,"NORAD_CAT_ID":49279,"ELEMENT_SET_NO":999,"REV_AT_EPOCH":23041,"BSTAR":-0.00064383177,"MEAN_MOTION_DOT":-0.00000226,"MEAN_MOTION_DDOT":0},{"OBJECT_NAME":"ONEWEB-0347","OBJECT_ID":"2021-090B","EPOCH":"2026-07-08T18:52:47.340192","CLASSIFICATION_TYPE":"U","MEAN_MOTION":13.20769698,"ECCENTRICITY":0.00019069,"INCLINATION":87.9183,"RA_OF_ASC_NODE":270.1372,"ARG_OF_PERICENTER":105.0672,"MEAN_ANOMALY":255.0672,"EPHEMERIS_TYPE":0,"NORAD_CAT_ID":49280,"ELEMENT_SET_NO":999,"REV_AT_EPOCH":23389,"BSTAR":0.00022391135,"MEAN_MOTION_DOT":0.00000104,"MEAN_MOTION_DDOT":0}]}
